H1 CPF 01  gfz 2021 01 16 13  5162 tandemx   
H2 1003001  6202 36605    2021 01 16 12 59 42 2021 01 21 00 00 42   120 1 1  0 0 0
H9
10 0 59234  32382.000000  0   -3923626.059   2983142.022  -4820361.282
10 0 59234  32502.000000  0   -4256493.991   3503829.171  -4138716.845
10 0 59234  32622.000000  0   -4506680.094   3968653.272  -3384548.310
10 0 59234  32742.000000  0   -4670808.470   4367975.199  -2571006.607
10 0 59234  32862.000000  0   -4747157.891   4693240.332  -1712316.550
10 0 59234  32982.000000  0   -4735680.478   4937165.526   -823529.744
10 0 59234  33102.000000  0   -4637987.805   5093904.877     79742.513
10 0 59234  33222.000000  0   -4457301.147   5159188.244    981610.158
10 0 59234  33342.000000  0   -4198371.076   5130429.207   1866192.383
10 0 59234  33462.000000  0   -3867363.793   5006798.108   2717907.946
10 0 59234  33582.000000  0   -3471718.719   4789258.938   3521757.805
10 0 59234  33702.000000  0   -3019982.245   4480570.303   4263594.818
10 0 59234  33822.000000  0   -2521622.282   4085250.692   4930376.500
10 0 59234  33942.000000  0   -1986827.022   3609507.957   5510395.418
10 0 59234  34062.000000  0   -1426293.567   3061135.321   5993482.677
10 0 59234  34182.000000  0    -851011.163   2449376.952   6371181.320
10 0 59234  34302.000000  0    -272044.874   1784766.372   6636887.072
10 0 59234  34422.000000  0     299676.498   1078942.336   6785958.315
10 0 59234  34542.000000  0     853566.571    344442.880   6815792.010
10 0 59234  34662.000000  0    1379576.309   -405516.778   6725865.858
10 0 59234  34782.000000  0    1868375.531  -1157281.340   6517747.884
10 0 59234  34902.000000  0    2311518.290  -1897003.404   6195070.831
10 0 59234  35022.000000  0    2701590.054  -2610898.465   5763473.884
10 0 59234  35142.000000  0    3032334.340  -3285503.333   5230509.385
10 0 59234  35262.000000  0    3298755.379  -3907932.901   4605516.417
10 0 59234  35382.000000  0    3497196.501  -4466130.841   3899462.812
10 0 59234  35502.000000  0    3625391.744  -4949109.601   3124755.496
10 0 59234  35622.000000  0    3682488.791  -5347173.048   2295023.046
10 0 59234  35742.000000  0    3669043.113  -5652117.349   1424873.540
10 0 59234  35862.000000  0    3586982.777  -5857404.325    529632.066
10 0 59234  35982.000000  0    3439544.990  -5958302.034   -374935.531
10 0 59234  36102.000000  0    3231186.988  -5951992.103  -1272908.940
10 0 59234  36222.000000  0    2967469.810  -5837636.385  -2148503.303
10 0 59234  36342.000000  0    2654921.629  -5616404.416  -2986353.418
10 0 59234  36462.000000  0    2300883.082  -5291460.159  -3771789.394
10 0 59234  36582.000000  0    1913337.902  -4867908.244  -4491095.601
10 0 59234  36702.000000  0    1500734.500  -4352702.625  -5131746.691
10 0 59234  36822.000000  0    1071804.554  -3754521.870  -5682618.892
10 0 59234  36942.000000  0     635380.888  -3083613.868  -6134174.005
10 0 59234  37062.000000  0     200218.271  -2351613.742  -6478613.361
10 0 59234  37182.000000  0    -225178.623  -1571338.622  -6710001.182
10 0 59234  37302.000000  0    -632716.856   -756563.141  -6824356.832
10 0 59234  37422.000000  0   -1014864.335     78220.987  -6819715.890
10 0 59234  37542.000000  0   -1364785.406    918057.057  -6696159.098
10 0 59234  37662.000000  0   -1676460.261   1747784.280  -6455810.942
10 0 59234  37782.000000  0   -1944786.096   2552304.449  -6102806.964
10 0 59234  37902.000000  0   -2165660.415   3316851.522  -5643231.745
10 0 59234  38022.000000  0   -2336044.057   4027260.634  -5085024.287
10 0 59234  38142.000000  0   -2454003.553   4670231.989  -4437852.868
10 0 59234  38262.000000  0   -2518731.598   5233584.932  -3712957.553
10 0 59234  38382.000000  0   -2530543.987   5706494.960  -2922962.943
10 0 59234  38502.000000  0   -2490853.302   6079710.555  -2081665.761
10 0 59234  38622.000000  0   -2402120.128   6345745.537  -1203796.423
10 0 59234  38742.000000  0   -2267781.830   6499037.640   -304759.499
10 0 59234  38862.000000  0   -2092161.325   6536073.385    599639.149
10 0 59234  38982.000000  0   -1880356.755   6455474.724   1493479.838
10 0 59234  39102.000000  0   -1638113.188   6258037.854   2361020.810
10 0 59234  39222.000000  0   -1371681.647   5946727.726   3186983.671
10 0 59234  39342.000000  0   -1087669.916   5526630.154   3956828.498
10 0 59234  39462.000000  0    -792888.942   5004863.048   4657014.723
10 0 59234  39582.000000  0    -494196.275   4390445.936   5275242.891
10 0 59234  39702.000000  0    -198341.337   3694133.512   5800667.403
10 0 59234  39822.000000  0      88181.480   2928219.795   6224083.701
10 0 59234  39942.000000  0     359271.032   2106312.885   6538084.005
10 0 59234  40062.000000  0     609345.954   1243088.671   6737180.895
10 0 59234  40182.000000  0     833457.077    354025.467   6817897.398
10 0 59234  40302.000000  0    1027383.640   -544873.119   6778823.220
10 0 59234  40422.000000  0    1187712.050  -1437365.475   6620639.136
10 0 59234  40542.000000  0    1311896.085  -2307265.126   6346106.128
10 0 59234  40662.000000  0    1398297.463  -3138734.730   5960020.812
10 0 59234  40782.000000  0    1446205.735  -3916576.887   5469135.971
10 0 59234  40902.000000  0    1455837.693  -4626514.483   4882046.922
10 0 59234  41022.000000  0    1428317.213  -5255457.221   4209047.697
10 0 59234  41142.000000  0    1365634.950  -5791752.286   3461956.190
10 0 59234  41262.000000  0    1270588.461  -6225410.136   2653907.299
10 0 59234  41382.000000  0    1146703.671  -6548299.004   1799121.227
10 0 59234  41502.000000  0     998139.441  -6754306.635    912650.677
10 0 59234  41622.000000  0     829578.264  -6839463.569     10109.848
10 0 59234  41742.000000  0     646104.084  -6802024.451   -892610.275
10 0 59234  41862.000000  0     453071.007  -6642501.120  -1779632.473
10 0 59234  41982.000000  0     255968.426  -6363649.682  -2635380.133
10 0 59234  42102.000000  0      60284.779  -5970414.487  -3444855.988
10 0 59234  42222.000000  0    -128627.015  -5469829.690  -4193908.238
10 0 59234  42342.000000  0    -305679.050  -4870879.923  -4869477.429
10 0 59234  42462.000000  0    -466169.413  -4184326.374  -5459818.697
10 0 59234  42582.000000  0    -605892.150  -3422502.798  -5954698.012
10 0 59234  42702.000000  0    -721233.632  -2599085.866  -6345559.280
10 0 59234  42822.000000  0    -809254.047  -1728845.019  -6625660.857
10 0 59234  42942.000000  0    -867752.669   -827377.268  -6790180.540
10 0 59234  43062.000000  0    -895316.090     89169.183  -6836290.202
10 0 59234  43182.000000  0    -891348.115   1004378.662  -6763197.999
10 0 59234  43302.000000  0    -856081.654   1901854.135  -6572160.175
10 0 59234  43422.000000  0    -790572.557   2765503.346  -6266461.810
10 0 59234  43542.000000  0    -696674.852   3579821.775  -5851367.897
10 0 59234  43662.000000  0    -576997.988   4330169.274  -5334042.201
10 0 59234  43782.000000  0    -434846.336   5003034.096  -4723434.815
10 0 59234  43902.000000  0    -274142.639   5586281.935  -4030138.804
10 0 59234  44022.000000  0     -99336.010   6069383.633  -3266215.743
10 0 59234  44142.000000  0      84703.958   6443616.071  -2444993.119
10 0 59234  44262.000000  0     272804.625   6702232.454  -1580835.969
10 0 59234  44382.000000  0     459616.772   6840596.830   -688895.643
10 0 59234  44502.000000  0     639747.360   6856278.166    215159.573
10 0 59234  44622.000000  0     807895.303   6749101.012   1115426.555
10 0 59234  44742.000000  0     958986.063   6521150.082   1996055.629
10 0 59234  44862.000000  0    1088300.473   6176729.390   2841537.944
10 0 59234  44982.000000  0    1191596.141   5722278.563   3636985.942
10 0 59234  45102.000000  0    1265218.602   5166245.645   4368401.909
10 0 59234  45222.000000  0    1306200.334   4518922.389   5022929.506
10 0 59234  45342.000000  0    1312340.248   3792240.149   5589081.101
10 0 59234  45462.000000  0    1282267.941   2999540.652   6056933.387
10 0 59234  45582.000000  0    1215488.531   2155324.459   6418297.123
10 0 59234  45702.000000  0    1112407.550   1274980.013   6666855.059
10 0 59234  45822.000000  0     974336.032    374499.270   6798266.024
10 0 59234  45942.000000  0     803475.533   -529812.518   6810235.129
10 0 59234  46062.000000  0     602883.076  -1421631.179   6702552.965
10 0 59234  46182.000000  0     376416.334  -2284908.427   6477099.325
10 0 59234  46302.000000  0     128659.782  -3104161.144   6137812.854
10 0 59234  46422.000000  0    -135166.310  -3864750.961   5690624.245
10 0 59234  46542.000000  0    -409311.985  -4553146.446   5143356.970
10 0 59234  46662.000000  0    -687617.646  -5157168.049   4505598.819
10 0 59234  46782.000000  0    -963647.513  -5666213.679   3788540.980
10 0 59234  46902.000000  0   -1230832.861  -6071455.004   3004783.439
10 0 59234  47022.000000  0   -1482621.198  -6365999.551   2168113.729
10 0 59234  47142.000000  0   -1712628.469  -6545017.521   1293262.811
10 0 59234  47262.000000  0   -1914791.517  -6605827.873    395639.420
10 0 59234  47382.000000  0   -2083513.991  -6547940.302   -508949.721
10 0 59234  47502.000000  0   -2213803.508  -6373053.251  -1404587.084
10 0 59234  47622.000000  0   -2301396.892  -6085008.067  -2275532.739
10 0 59234  47742.000000  0   -2342870.434  -5689700.638  -3106508.258
10 0 59234  47862.000000  0   -2335731.997  -5194952.161  -3882969.860
10 0 59234  47982.000000  0   -2278492.589  -4610343.154  -4591363.752
10 0 59234  48102.000000  0   -2170716.384  -3947017.014  -5219358.844
10 0 59234  48222.000000  0   -2013048.843  -3217458.663  -5756054.265
10 0 59234  48342.000000  0   -1807222.599  -2435252.967  -6192159.724
10 0 59234  48462.000000  0   -1556040.490  -1614827.212  -6520145.777
10 0 59234  48582.000000  0   -1263337.083   -771184.079  -6734361.827
10 0 59234  48702.000000  0    -933920.440     80369.923  -6831122.873
10 0 59234  48822.000000  0    -573493.867    924496.329  -6808765.410
99
